[{"OBJECT_NAME":"GHGSAT-C4","OBJECT_ID":"2022-057Q","EPOCH":"2026-03-09T22:58:28.655904","MEAN_MOTION":15.3293316,"ECCENTRICITY":0.0007552,"INCLINATION":97.6357,"RA_OF_ASC_NODE":210.0193,"ARG_OF_PERICENTER":100.0033,"MEAN_ANOMALY":260.2061,"EPHEMERIS_TYPE":0,"CLASSIFICATION_TYPE":"U","NORAD_CAT_ID":52746,"ELEMENT_SET_NO":999,"REV_AT_EPOCH":21033,"BSTAR":0.00030289005,"MEAN_MOTION_DOT":9.562e-5,"MEAN_MOTION_DDOT":0},{"OBJECT_NAME":"STARLINK-31939","OBJECT_ID":"2024-111L","EPOCH":"2026-03-09T06:45:59.887296","MEAN_MOTION":15.30189391,"ECCENTRICITY":0.00012836,"INCLINATION":53.1604,"RA_OF_ASC_NODE":77.3344,"ARG_OF_PERICENTER":95.203,"MEAN_ANOMALY":264.9118,"EPHEMERIS_TYPE":0,"CLASSIFICATION_TYPE":"U","NORAD_CAT_ID":60026,"ELEMENT_SET_NO":999,"REV_AT_EPOCH":9897,"BSTAR":5.61391e-7,"MEAN_MOTION_DOT":-3.43e-6,"MEAN_MOTION_DDOT":0}]
